{"type": "FeatureCollection", "features": [ {"type": "Feature", "properties": {"norad_id": 66897, "name": "STARLINK-36079", "group": "last-30-days", "lat": -33.854539615345935, "lon": -108.97355364622729, "alt_km": 347.4579562185045, "timestamp": "2025-12-19T06:59:42.651825+00:00", "meta": {"OBJECT_NAME": "STARLINK-36079", "OBJECT_ID": "2025-283V", "EPOCH": "2025-12-18T22:00:00.999936", "MEAN_MOTION": 15.76916031, "ECCENTRICITY": 8.852e-05, "INCLINATION": 53.1555, "RA_OF_ASC_NODE": 42.6928, "ARG_OF_PERICENTER": 89.0348, "MEAN_ANOMALY": 167.0341, "EPHEMERIS_TYPE": 0, "CLASSIFICATION_TYPE": "U", "NORAD_CAT_ID": 66897, "ELEMENT_SET_NO": 999, "REV_AT_EPOCH": 342, "BSTAR": -0.010902849, "MEAN_MOTION_DOT": -0.01573256, "MEAN_MOTION_DDOT": 0}, "tle": {"line1": "1 66897U 25283V   25352.91667824 -.01573256  00000+0 -10903-1 0  9990", "line2": "2 66897  53.1555  42.6928 0000885  89.0348 167.0341 15.76916031  3426"}}, "geometry": {"type": "Point", "coordinates": [-108.97355364622729, -33.854539615345935]}}, {"type": "Feature", "properties": {"norad_id": 66898, "name": "STARLINK-36065", "group": "last-30-days", "lat": -35.28596846563233, "lon": -107.12891498433864, "alt_km": 347.96343704879473, "timestamp": "2025-12-19T06:59:42.651835+00:00", "meta": {"OBJECT_NAME": "STARLINK-36065", "OBJECT_ID": "2025-283W", "EPOCH": "2025-12-18T22:00:00.999936", "MEAN_MOTION": 15.76805584, "ECCENTRICITY": 8.123e-05, "INCLINATION": 53.1553, "RA_OF_ASC_NODE": 42.6873, "ARG_OF_PERICENTER": 74.6903, "MEAN_ANOMALY": 183.6311, "EPHEMERIS_TYPE": 0, "CLASSIFICATION_TYPE": "U", "NORAD_CAT_ID": 66898, "ELEMENT_SET_NO": 999, "REV_AT_EPOCH": 342, "BSTAR": -0.011050202, "MEAN_MOTION_DOT": -0.01584841, "MEAN_MOTION_DDOT": 0}, "tle": {"line1": "1 66898U 25283W   25352.91667824 -.01584841  00000+0 -11050-1 0  9997", "line2": "2 66898  53.1553  42.6873 0000812  74.6903 183.6311 15.76805584  3422"}}, "geometry": {"type": "Point", "coordinates": [-107.12891498433864, -35.28596846563233]}}, {"type": "Feature", "properties": {"norad_id": 66899, "name": "STARLINK-36064", "group": "last-30-days", "lat": -36.66450989511385, "lon": -105.25078122698798, "alt_km": 348.41736371531897, "timestamp": "2025-12-19T06:59:42.651845+00:00", "meta": {"OBJECT_NAME": "STARLINK-36064", "OBJECT_ID": "2025-283X", "EPOCH": "2025-12-18T22:00:00.999936", "MEAN_MOTION": 15.76708527, "ECCENTRICITY": 9.273e-05, "INCLINATION": 53.1555, "RA_OF_ASC_NODE": 42.6833, "ARG_OF_PERICENTER": 73.6701, "MEAN_ANOMALY": 186.8436, "EPHEMERIS_TYPE": 0, "CLASSIFICATION_TYPE": "U", "NORAD_CAT_ID": 66899, "ELEMENT_SET_NO": 999, "REV_AT_EPOCH": 336, "BSTAR": -0.011152573, "MEAN_MOTION_DOT": -0.01623044, "MEAN_MOTION_DDOT": 0}, "tle": {"line1": "1 66899U 25283X   25352.91667824 -.01623044  00000+0 -11153-1 0  9991", "line2": "2 66899  53.1555  42.6833 0000927  73.6701 186.8436 15.76708527  3368"}}, "geometry": {"type": "Point", "coordinates": [-105.25078122698798, -36.66450989511385]}}, {"type": "Feature", "properties": {"norad_id": 66900, "name": "STARLINK-36074", "group": "last-30-days", "lat": -38.01793799802792, "lon": -103.29659732536001, "alt_km": 348.7229854934085, "timestamp": "2025-12-19T06:59:42.651855+00:00", "meta": {"OBJECT_NAME": "STARLINK-36074", "OBJECT_ID": "2025-283Y", "EPOCH": "2025-12-18T22:00:00.999936", "MEAN_MOTION": 15.76591384, "ECCENTRICITY": 8.902e-05, "INCLINATION": 53.1551, "RA_OF_ASC_NODE": 42.6783, "ARG_OF_PERICENTER": 83.0889, "MEAN_ANOMALY": 179.6422, "EPHEMERIS_TYPE": 0, "CLASSIFICATION_TYPE": "U", "NORAD_CAT_ID": 66900, "ELEMENT_SET_NO": 999, "REV_AT_EPOCH": 342, "BSTAR": -0.011138368, "MEAN_MOTION_DOT": -0.01582618, "MEAN_MOTION_DDOT": 0}, "tle": {"line1": "1 66900U 25283Y   25352.91667824 -.01582618  00000+0 -11138-1 0  9998", "line2": "2 66900  53.1551  42.6783 0000890  83.0889 179.6422 15.76591384  3425"}}, "geometry": {"type": "Point", "coordinates": [-103.29659732536001, -38.01793799802792]}}, {"type": "Feature", "properties": {"norad_id": 66901, "name": "STARLINK-36043", "group": "last-30-days", "lat": -39.30707958894714, "lon": -101.31849191186956, "alt_km": 348.9528289155887, "timestamp": "2025-12-19T06:59:42.651865+00:00", "meta": {"OBJECT_NAME": "STARLINK-36043", "OBJECT_ID": "2025-283Z", "EPOCH": "2025-12-18T22:00:00.999936", "MEAN_MOTION": 15.76464965, "ECCENTRICITY": 9.326e-05, "INCLINATION": 53.1553, "RA_OF_ASC_NODE": 42.674, "ARG_OF_PERICENTER": 78.5251, "MEAN_ANOMALY": 186.3341, "EPHEMERIS_TYPE": 0, "CLASSIFICATION_TYPE": "U", "NORAD_CAT_ID": 66901, "ELEMENT_SET_NO": 999, "REV_AT_EPOCH": 342, "BSTAR": -0.010430457, "MEAN_MOTION_DOT": -0.01486926, "MEAN_MOTION_DDOT": 0}, "tle": {"line1": "1 66901U 25283Z   25352.91667824 -.01486926  00000+0 -10430-1 0  9998", "line2": "2 66901  53.1553  42.6740 0000932  78.5251 186.3341 15.76464965  3429"}}, "geometry": {"type": "Point", "coordinates": [-101.31849191186956, -39.30707958894714]}}, {"type": "Feature", "properties": {"norad_id": 66902, "name": "STARLINK-35983", "group": "last-30-days", "lat": -40.581781939272126, "lon": -99.23250027912955, "alt_km": 349.4814711955378, "timestamp": "2025-12-19T06:59:42.651878+00:00", "meta": {"OBJECT_NAME": "STARLINK-35983", "OBJECT_ID": "2025-283AA", "EPOCH": "2025-12-18T22:00:00.999936", "MEAN_MOTION": 15.76344693, "ECCENTRICITY": 0.00011383, "INCLINATION": 53.1554, "RA_OF_ASC_NODE": 42.6693, "ARG_OF_PERICENTER": 90.6644, "MEAN_ANOMALY": 176.4228, "EPHEMERIS_TYPE": 0, "CLASSIFICATION_TYPE": "U", "NORAD_CAT_ID": 66902, "ELEMENT_SET_NO": 999, "REV_AT_EPOCH": 342, "BSTAR": -0.010712121, "MEAN_MOTION_DOT": -0.01515099, "MEAN_MOTION_DDOT": 0}, "tle": {"line1": "1 66902U 25283AA  25352.91667824 -.01515099  00000+0 -10712-1 0  9996", "line2": "2 66902  53.1554  42.6693 0001138  90.6644 176.4228 15.76344693  3427"}}, "geometry": {"type": "Point", "coordinates": [-99.23250027912955, -40.581781939272126]}}, {"type": "Feature", "properties": {"norad_id": 66903, "name": "STARLINK-36077", "group": "last-30-days", "lat": -41.77564160610049, "lon": -97.14290965132386, "alt_km": 349.74609534564297, "timestamp": "2025-12-19T06:59:42.651888+00:00", "meta": {"OBJECT_NAME": "STARLINK-36077", "OBJECT_ID": "2025-283AB", "EPOCH": "2025-12-18T22:00:00.999936", "MEAN_MOTION": 15.76285559, "ECCENTRICITY": 0.00010482, "INCLINATION": 53.156, "RA_OF_ASC_NODE": 42.6652, "ARG_OF_PERICENTER": 91.2283, "MEAN_ANOMALY": 177.9393, "EPHEMERIS_TYPE": 0, "CLASSIFICATION_TYPE": "U", "NORAD_CAT_ID": 66903, "ELEMENT_SET_NO": 999, "REV_AT_EPOCH": 342, "BSTAR": -0.010991765, "MEAN_MOTION_DOT": -0.0154602, "MEAN_MOTION_DDOT": 0}, "tle": {"line1": "1 66903U 25283AB  25352.91667824 -.01546020  00000+0 -10992-1 0  9995", "line2": "2 66903  53.1560  42.6652 0001048  91.2283 177.9393 15.76285559  3420"}}, "geometry": {"type": "Point", "coordinates": [-97.14290965132386, -41.77564160610049]}}, {"type": "Feature", "properties": {"norad_id": 66904, "name": "STARLINK-36059", "group": "last-30-days", "lat": -42.95582601287442, "lon": -94.9221884038794, "alt_km": 349.7680223718726, "timestamp": "2025-12-19T06:59:42.651898+00:00", "meta": {"OBJECT_NAME": "STARLINK-36059", "OBJECT_ID": "2025-283AC", "EPOCH": "2025-12-18T22:00:00.999936", "MEAN_MOTION": 15.7622562, "ECCENTRICITY": 7.306e-05, "INCLINATION": 53.1548, "RA_OF_ASC_NODE": 42.6604, "ARG_OF_PERICENTER": 80.0738, "MEAN_ANOMALY": 191.1879, "EPHEMERIS_TYPE": 0, "CLASSIFICATION_TYPE": "U", "NORAD_CAT_ID": 66904, "ELEMENT_SET_NO": 999, "REV_AT_EPOCH": 342, "BSTAR": -0.010795784, "MEAN_MOTION_DOT": -0.01518116, "MEAN_MOTION_DDOT": 0}, "tle": {"line1": "1 66904U 25283AC  25352.91667824 -.01518116  00000+0 -10796-1 0  9993", "line2": "2 66904  53.1548  42.6604 0000730  80.0738 191.1879 15.76225620  3422"}}, "geometry": {"type": "Point", "coordinates": [-94.9221884038794, -42.95582601287442]}}, {"type": "Feature", "properties": {"norad_id": 66905, "name": "STARLINK-36075", "group": "last-30-days", "lat": -44.050050572379554, "lon": -92.70709663669324, "alt_km": 349.9335576361773, "timestamp": "2025-12-19T06:59:42.651910+00:00", "meta": {"OBJECT_NAME": "STARLINK-36075", "OBJECT_ID": "2025-283AD", "EPOCH": "2025-12-18T22:00:00.999936", "MEAN_MOTION": 15.76147857, "ECCENTRICITY": 7.623e-05, "INCLINATION": 53.1558, "RA_OF_ASC_NODE": 42.6562, "ARG_OF_PERICENTER": 93.2538, "MEAN_ANOMALY": 180.0465, "EPHEMERIS_TYPE": 0, "CLASSIFICATION_TYPE": "U", "NORAD_CAT_ID": 66905, "ELEMENT_SET_NO": 999, "REV_AT_EPOCH": 342, "BSTAR": -0.010652509, "MEAN_MOTION_DOT": -0.0149589, "MEAN_MOTION_DDOT": 0}, "tle": {"line1": "1 66905U 25283AD  25352.91667824 -.01495890  00000+0 -10653-1 0  9999", "line2": "2 66905  53.1558  42.6562 0000762  93.2538 180.0465 15.76147857  3429"}}, "geometry": {"type": "Point", "coordinates": [-92.70709663669324, -44.050050572379554]}}, {"type": "Feature", "properties": {"norad_id": 66906, "name": "1998-067XS", "group": "last-30-days", "lat": -43.302769725747034, "lon": 61.61321593625345, "alt_km": 417.559605339442, "timestamp": "2025-12-19T06:59:42.651921+00:00", "meta": {"OBJECT_NAME": "1998-067XS", "OBJECT_ID": "1998-067XS", "EPOCH": "2025-12-18T14:14:47.325984", "MEAN_MOTION": 15.50877887, "ECCENTRICITY": 0.00030668, "INCLINATION": 51.6311, "RA_OF_ASC_NODE": 113.3804, "ARG_OF_PERICENTER": 230.517, "MEAN_ANOMALY": 129.5548, "EPHEMERIS_TYPE": 0, "CLASSIFICATION_TYPE": "U", "NORAD_CAT_ID": 66906, "ELEMENT_SET_NO": 999, "REV_AT_EPOCH": 252, "BSTAR": 0.00040765177, "MEAN_MOTION_DOT": 0.00023614, "MEAN_MOTION_DDOT": 0}, "tle": {"line1": "1 66906U 98067XS  25352.59360331  .00023614  00000+0  40765-3 0  9994", "line2": "2 66906  51.6311 113.3804 0003066 230.5170 129.5548 15.50877887  2528"}}, "geometry": {"type": "Point", "coordinates": [61.61321593625345, -43.302769725747034]}}]}